OBJECT_NAME,OBJECT_ID,EPOCH,MEAN_MOTION,ECCENTRICITY,INCLINATION,RA_OF_ASC_NODE,ARG_OF_PERICENTER,MEAN_ANOMALY,EPHEMERIS_TYPE,CLASSIFICATION_TYPE,NORAD_CAT_ID,ELEMENT_SET_NO,REV_AT_EPOCH,BSTAR,MEAN_MOTION_DOT,MEAN_MOTION_DDOT
LAOSAT 1,2015-067A,2026-07-22T22:11:53.979648,1.00272657,.00028067,0.0242,255.0274,173.7347,333.3934,0,U,41034,999,3921,0,-.339E-5,0
TELSTAR 12V,2015-068A,2026-07-22T19:48:20.104416,1.00273041,.00024237,0.0157,308.2773,173.8316,100.5356,0,U,41036,999,3898,0,-.115E-5,0
ELEKTRO-L 2,2015-074A,2026-07-22T23:13:39.659232,1.00272653,.00006504,6.7817,70.0808,230.5554,334.0031,0,U,41105,999,3886,0,-.119E-5,0
COSMOS 2513,2015-075A,2026-07-22T03:08:42.612864,1.00271498,.00026064,0.0578,104.8586,343.9450,338.5084,0,U,41121,999,3889,0,-.135E-5,0
EXPRESS-AMU1,2015-082A,2026-07-22T22:38:22.640640,1.00270632,.00024922,0.0181,62.7592,59.3426,194.2492,0,U,41191,999,3862,0,.16E-5,0
GAOFEN-4,2015-083A,2026-07-21T14:23:34.672704,1.00270335,.00041624,0.4439,83.8614,121.1097,55.9718,0,U,41194,999,3887,0,-.333E-5,0
BELINTERSAT-1,2016-001A,2026-07-22T21:46:15.301056,1.00269683,.00018151,0.0331,234.4854,196.2191,248.0169,0,U,41238,999,3859,0,.111E-5,0
IRNSS-1E,2016-003A,2026-07-21T00:43:29.481312,1.00275296,.0019282,33.3051,59.2585,176.3074,185.9195,0,U,41241,999,3842,0,-.317E-5,0
EUTELSAT 9B,2016-005A,2026-07-22T20:59:38.732640,1.00270377,.00011251,0.0182,44.0309,62.7251,157.7735,0,U,41310,999,3847,0,.66E-6,0
SES-9,2016-013A,2026-07-22T21:13:11.000640,1.00269619,.0002332,0.0210,319.8311,142.3756,265.0166,0,U,41380,999,3779,0,-.341E-5,0
EUTELSAT 65 WEST A,2016-014A,2026-07-22T19:33:56.056032,1.00271996,.00024192,0.0827,301.0853,174.3149,53.4545,0,U,41382,999,3788,0,-.272E-5,0
IRNSS-1F,2016-015A,2026-07-22T21:25:03.816192,1.00270337,.00178191,5.4357,95.9591,179.6734,18.6772,0,U,41384,999,3802,0,.157E-5,0
BEIDOU-2 IGSO-6,2016-021A,2026-06-26T02:38:38.671584,1.00258926,.0057558,60.2385,37.9495,231.0163,137.2672,0,U,41434,999,3757,0,-.145E-5,0
IRNSS-1G,2016-027A,2026-07-22T18:39:51.742944,1.00265833,.0005796,5.2814,96.6510,13.3682,240.0567,0,U,41469,999,3753,0,-.336E-5,0
JCSAT-2B,2016-028A,2026-07-22T18:54:38.582784,1.00274193,.00012593,0.0182,63.1850,37.3681,277.6398,0,U,41471,999,3748,0,-.161E-5,0
THAICOM 8,2016-031A,2026-07-22T21:16:38.931744,1.00272115,.00030977,0.0645,40.6484,38.0454,259.5822,0,U,41552,999,3707,0,-.117E-5,0
INTELSAT 31 (IS-31),2016-035A,2026-07-22T19:25:19.380576,1.00270984,.00008932,0.0087,302.1030,11.2762,183.4480,0,U,41581,999,3704,0,-.147E-5,0
BEIDOU-2 G7,2016-037A,2026-07-22T22:06:46.971072,1.00270142,.00061689,1.8067,69.5583,2.1385,311.2086,0,U,41586,999,724,0,-.35E-5,0
ABS-2A (MONGOLSAT-1),2016-038A,2026-07-22T21:16:38.931744,1.00271476,.00019035,0.0164,57.6038,17.0737,259.8155,0,U,41588,999,3706,0,-.8E-6,0
EUTELSAT 117 WEST B,2016-038B,2026-07-22T15:53:51.158688,1.00272816,.0000176,0.0038,118.4581,68.0841,235.3336,0,U,41589,999,3701,0,-.8E-7,0
BRISAT,2016-039A,2026-07-22T19:38:38.857920,1.00268989,.00020129,0.0108,24.7018,90.3568,270.6473,0,U,41591,999,3696,0,-.193E-5,0
ECHOSTAR 18,2016-039B,2026-07-22T21:53:06.254016,1.00273501,.00017186,0.0176,64.7128,54.6635,88.1899,0,U,41592,999,3698,0,-.278E-5,0
MUOS-5,2016-041A,2026-07-22T21:04:44.892768,1.00273622,.01999988,2.1287,302.3770,260.4824,308.8526,0,U,41622,999,3744,0,-.145E-5,0
TIANTONG-1 1,2016-048A,2026-07-22T23:57:07.332192,1.00272129,.00049871,3.9170,43.6826,58.7766,298.9516,0,U,41725,999,3662,0,-.316E-5,0
JCSAT-16,2016-050A,2026-07-22T22:16:16.061952,1.00271755,.00011154,0.0186,61.3098,54.0834,303.2874,0,U,41729,999,3642,0,-.247E-5,0
USA 270,2016-052A,2026-07-20T10:18:22.228416,1.00264644,.0009649,4.2794,76.7594,103.0391,39.0344,0,U,41744,999,2846,0,-.355E-5,0
USA 271,2016-052B,2026-07-14T02:57:21.919968,1.00268559,.0011085,4.2370,76.9135,165.9764,191.3847,0,U,41745,999,2818,0,-.3E-5,0
INTELSAT 36 (IS-36),2016-053A,2026-07-22T21:54:48.118752,1.00272243,.00024079,0.0112,36.7806,314.9378,346.1265,0,U,41747,999,3631,0,-.2E-6,0
INSAT-3DR,2016-054A,2026-07-22T21:16:38.931744,1.00271748,.00102641,0.0886,89.0015,180.3289,64.4397,0,U,41752,999,3617,0,-.73E-6,0
GSAT-18,2016-060A,2026-07-22T21:16:38.931744,1.00272379,.00054425,0.0536,91.4152,350.5585,251.7820,0,U,41793,999,3588,0,-.73E-6,0
SKY MUSTER 2 (NBN1B),2016-060B,2026-07-22T22:16:31.037664,1.00269738,.00018185,0.0194,55.2014,66.2819,298.1245,0,U,41794,999,3587,0,0,0
HIMAWARI-9,2016-064A,2026-07-22T22:15:23.644800,1.00271775,.00024171,0.0142,49.8368,124.5286,240.9039,0,U,41836,999,3556,0,0,0
