LAOSAT 1                
1 41034U 15067A   26203.92493032 -.00000339  00000+0  00000+0 0  9990
2 41034   0.0242 255.0274 0002806 173.7347 333.3934  1.00272657 39218
TELSTAR 12V             
1 41036U 15068A   26203.82523269 -.00000115  00000+0  00000+0 0  9990
2 41036   0.0157 308.2773 0002423 173.8316 100.5356  1.00273041 38985
ELEKTRO-L 2             
1 41105U 15074A   26203.96782013 -.00000119  00000+0  00000+0 0  9997
2 41105   6.7817  70.0808 0000650 230.5554 334.0031  1.00272653 38865
COSMOS 2513             
1 41121U 15075A   26203.13104876 -.00000135  00000+0  00000+0 0  9998
2 41121   0.0578 104.8586 0002606 343.9450 338.5084  1.00271498 38896
EXPRESS-AMU1            
1 41191U 15082A   26203.94331760  .00000160  00000+0  00000+0 0  9993
2 41191   0.0181  62.7592 0002492  59.3426 194.2492  1.00270632 38626
GAOFEN-4                
1 41194U 15083A   26202.59970686 -.00000333  00000+0  00000+0 0  9996
2 41194   0.4439  83.8614 0004162 121.1097  55.9718  1.00270335 38877
BELINTERSAT-1           
1 41238U 16001A   26203.90712154  .00000111  00000+0  00000+0 0  9999
2 41238   0.0331 234.4854 0001815 196.2191 248.0169  1.00269683 38591
IRNSS-1E                
1 41241U 16003A   26202.03020233 -.00000317  00000+0  00000+0 0  9997
2 41241  33.3051  59.2585 0019282 176.3074 185.9195  1.00275296 38420
EUTELSAT 9B             
1 41310U 16005A   26203.87475385  .00000066  00000+0  00000+0 0  9991
2 41310   0.0182  44.0309 0001125  62.7251 157.7735  1.00270377 38478
SES-9                   
1 41380U 16013A   26203.88415510 -.00000341  00000+0  00000+0 0  9999
2 41380   0.0210 319.8311 0002332 142.3756 265.0166  1.00269619 37791
EUTELSAT 65 WEST A      
1 41382U 16014A   26203.81523213 -.00000272  00000+0  00000+0 0  9998
2 41382   0.0827 301.0853 0002419 174.3149  53.4545  1.00271996 37889
IRNSS-1F                
1 41384U 16015A   26203.89240528  .00000157  00000+0  00000+0 0  9995
2 41384   5.4357  95.9591 0017819 179.6734  18.6772  1.00270337 38024
BEIDOU-2 IGSO-6         
1 41434U 16021A   26177.11016981 -.00000145  00000+0  00000+0 0  9995
2 41434  60.2385  37.9495 0057558 231.0163 137.2672  1.00258926 37578
IRNSS-1G                
1 41469U 16027A   26203.77768221 -.00000336  00000+0  00000+0 0  9994
2 41469   5.2814  96.6510 0005796  13.3682 240.0567  1.00265833 37533
JCSAT-2B                
1 41471U 16028A   26203.78794656 -.00000161  00000+0  00000+0 0  9996
2 41471   0.0182  63.1850 0001259  37.3681 277.6398  1.00274193 37489
THAICOM 8               
1 41552U 16031A   26203.88656171 -.00000117  00000+0  00000+0 0  9991
2 41552   0.0645  40.6484 0003097  38.0454 259.5822  1.00272115 37072
INTELSAT 31 (IS-31)     
1 41581U 16035A   26203.80925209 -.00000147  00000+0  00000+0 0  9993
2 41581   0.0087 302.1030 0000893  11.2762 183.4480  1.00270984 37047
BEIDOU-2 G7             
1 41586U 16037A   26203.92137698 -.00000350  00000+0  00000+0 0  9996
2 41586   1.8067  69.5583 0006168   2.1385 311.2086  1.00270142  7245
ABS-2A (MONGOLSAT-1)    
1 41588U 16038A   26203.88656171 -.00000080  00000+0  00000+0 0  9996
2 41588   0.0164  57.6038 0001903  17.0737 259.8155  1.00271476 37065
EUTELSAT 117 WEST B     
1 41589U 16038B   26203.66239767 -.00000008  00000+0  00000+0 0  9991
2 41589   0.0038 118.4581 0000176  68.0841 235.3336  1.00272816 37012
BRISAT                  
1 41591U 16039A   26203.81850530 -.00000193  00000+0  00000+0 0  9994
2 41591   0.0108  24.7018 0002012  90.3568 270.6473  1.00268989 36965
ECHOSTAR 18             
1 41592U 16039B   26203.91187794 -.00000278  00000+0  00000+0 0  9995
2 41592   0.0176  64.7128 0001718  54.6635  88.1899  1.00273501 36989
MUOS-5                  
1 41622U 16041A   26203.87829737 -.00000145  00000+0  00000+0 0  9990
2 41622   2.1287 302.3770 0199998 260.4824 308.8526  1.00273622 37443
TIANTONG-1 1            
1 41725U 16048A   26203.99800153 -.00000316  00000+0  00000+0 0  9995
2 41725   3.9170  43.6826 0004987  58.7766 298.9516  1.00272129 36628
JCSAT-16                
1 41729U 16050A   26203.92796368 -.00000247  00000+0  00000+0 0  9990
2 41729   0.0186  61.3098 0001115  54.0834 303.2874  1.00271755 36429
USA 270                 
1 41744U 16052A   26201.42942394 -.00000355  00000+0  00000+0 0  9994
2 41744   4.2794  76.7594 0009649 103.0391  39.0344  1.00264644 28461
USA 271                 
1 41745U 16052B   26195.12317037 -.00000300  00000+0  00000+0 0  9994
2 41745   4.2370  76.9135 0011085 165.9764 191.3847  1.00268559 28181
INTELSAT 36 (IS-36)     
1 41747U 16053A   26203.91305693 -.00000020  00000+0  00000+0 0  9998
2 41747   0.0112  36.7806 0002407 314.9378 346.1265  1.00272243 36318
INSAT-3DR               
1 41752U 16054A   26203.88656171 -.00000073  00000+0  00000+0 0  9999
2 41752   0.0886  89.0015 0010264 180.3289  64.4397  1.00271748 36170
GSAT-18                 
1 41793U 16060A   26203.88656171 -.00000073  00000+0  00000+0 0  9991
2 41793   0.0536  91.4152 0005442 350.5585 251.7820  1.00272379 35888
SKY MUSTER 2 (NBN1B)    
1 41794U 16060B   26203.92813701  .00000000  00000+0  00000+0 0  9990
2 41794   0.0194  55.2014 0001818  66.2819 298.1245  1.00269738 35878
HIMAWARI-9              
1 41836U 16064A   26203.92735700  .00000000  00000+0  00000+0 0  9993
2 41836   0.0142  49.8368 0002417 124.5286 240.9039  1.00271775 35567
